NORAD_CAT_ID,OBJECT_NAME,OBJECT_TYPE,EPOCH,MEAN_MOTION,ECCENTRICITY,INCLINATION,RA_OF_ASC_NODE,ARG_OF_PERICENTER,MEAN_ANOMALY,BSTAR,MEAN_MOTION_DOT,MEAN_MOTION_DDOT,TLE_LINE0,TLE_LINE1,TLE_LINE2,SEMIMAJOR_AXIS,PERIOD,APOGEE,PERIGEE,DECAYED
53888.0,STARLINK-5034,PAYLOAD,2024-01-22 20:06:26,15.08837655,0.000133,53.215,211.7366,92.0332,268.0813,7.3162e-05,8.77e-06,0.0,0 STARLINK-5034,1 53888U 22119C   24022.83780984  .00000877  00000-0  73162-4 0  9999,2 53888  53.2150 211.7366 0001330  92.0332 268.0813 15.08837655 74403,6917.888,95.438,540.673,538.832,0.0
53888.0,STARLINK-5034,PAYLOAD,2024-01-23 04:03:22,15.08837528,0.0001344,53.215,210.2492,88.6285,271.4862,4.9024e-05,4.92e-06,0.0,0 STARLINK-5034,1 53888U 22119C   24023.16901096  .00000492  00000-0  49024-4 0  9998,2 53888  53.2150 210.2492 0001344  88.6285 271.4862 15.08837528 74456,6917.888,95.438,540.683,538.823,0.0
53888.0,STARLINK-5034,PAYLOAD,2024-01-23 16:46:27,15.08844438,0.0001394,53.2152,207.8701,87.0867,273.0284,4.2895e-05,3.95e-06,0.0,0 STARLINK-5034,1 53888U 22119C   24023.69892710  .00000395  00000-0  42895-4 0  9999,2 53888  53.2152 207.8701 0001394  87.0867 273.0284 15.08844438 74114,6917.867,95.437,540.696,538.767,0.0
53888.0,STARLINK-5034,PAYLOAD,2024-01-23 21:32:36,15.08846361,0.0001387,53.2155,206.9781,85.5829,274.5321,5.202e-05,5.4e-06,0.0,0 STARLINK-5034,1 53888U 22119C   24023.89764450  .00000540  00000-0  52020-4 0  9993,2 53888  53.2155 206.9781 0001387  85.5829 274.5321 15.08846361 74562,6917.861,95.437,540.685,538.766,0.0
53888.0,STARLINK-5034,PAYLOAD,2024-01-24 03:54:09,15.0883858,0.0001458,53.2155,205.7885,85.2566,274.8592,-8.0379e-06,-4.16e-06,0.0,0 STARLINK-5034,1 53888U 22119C   24024.16261119 -.00000416  00000-0 -80379-5 0  9991,2 53888  53.2155 205.7885 0001458  85.2566 274.8592 15.08838580 74183,6917.885,95.438,540.758,538.741,0.0
53888.0,STARLINK-5034,PAYLOAD,2024-01-24 13:26:28,15.08841079,0.0001416,53.2156,204.0041,85.2269,274.8884,2.4975e-05,1.1e-06,0.0,0 STARLINK-5034,1 53888U 22119C   24024.56004940  .00000110  00000-0  24975-4 0  9990,2 53888  53.2156 204.0041 0001416  85.2269 274.8884 15.08841079 74668,6917.877,95.437,540.722,538.763,0.0
53888.0,STARLINK-5034,PAYLOAD,2024-01-24 21:23:23,15.08844451,0.0001387,53.2158,202.5172,86.3808,273.7343,5.1261e-05,5.28e-06,0.0,0 STARLINK-5034,1 53888U 22119C   24024.89124597  .00000528  00000-0  51261-4 0  9998,2 53888  53.2158 202.5172 0001387  86.3808 273.7343 15.08844451 74717,6917.867,95.437,540.691,538.772,0.0
53888.0,STARLINK-5034,PAYLOAD,2024-01-24 22:58:46,15.08844942,0.0001421,53.2158,202.2198,85.9438,274.1717,5.3263e-05,5.6e-06,0.0,0 STARLINK-5034,1 53888U 22119C   24024.95748543  .00000560  00000-0  53263-4 0  9998,2 53888  53.2158 202.2198 0001421  85.9438 274.1717 15.08844942 74305,6917.865,95.437,540.713,538.747,0.0
53888.0,STARLINK-5034,PAYLOAD,2024-01-25 14:52:38,15.08836812,0.0001424,53.2159,199.2464,92.5696,267.5459,8.7777e-06,-1.48e-06,0.0,0 STARLINK-5034,1 53888U 22119C   24025.61989205 -.00000148  00000-0  87777-5 0  9995,2 53888  53.2159 199.2464 0001424  92.5696 267.5459 15.08836812 74823,6917.89,95.438,540.74,538.77,0.0
53888.0,STARLINK-5034,PAYLOAD,2024-01-25 18:03:24,15.08837648,0.0001532,53.2162,198.6525,98.0688,262.0478,2.9791e-05,1.86e-06,0.0,0 STARLINK-5034,1 53888U 22119C   24025.75237104  .00000186  00000-0  29791-4 0  9996,2 53888  53.2162 198.6525 0001532  98.0688 262.0478 15.08837648 74425,6917.888,95.438,540.812,538.693,0.0
53888.0,STARLINK-5034,PAYLOAD,2024-01-26 14:43:25,15.08841629,0.0001452,53.2161,194.7843,99.7192,260.3965,6.7817e-05,7.92e-06,0.0,0 STARLINK-5034,1 53888U 22119C   24026.61348684  .00000792  00000-0  67817-4 0  9992,2 53888  53.2161 194.7843 0001452  99.7192 260.3965 15.08841629 74979,6917.875,95.437,540.745,538.736,0.0
53888.0,STARLINK-5034,PAYLOAD,2024-01-26 17:54:11,15.08843859,0.0001541,53.2162,194.1895,102.4328,257.6837,5.8045e-05,6.36e-06,0.0,0 STARLINK-5034,1 53888U 22119C   24026.74596553  .00000636  00000-0  58045-4 0  9996,2 53888  53.2162 194.1895 0001541 102.4328 257.6837 15.08843859 74573,6917.869,95.437,540.8,538.668,0.0
53888.0,STARLINK-5034,PAYLOAD,2024-01-27 11:23:26,15.08830868,0.0001381,53.2166,190.9187,95.825,264.29,7.6425e-05,9.28e-06,0.0,0 STARLINK-5034,1 53888U 22119C   24027.47461389  .00000928  00000-0  76425-4 0  9991,2 53888  53.2166 190.9187 0001381  95.8250 264.2900 15.08830868 74689,6917.908,95.438,540.729,538.818,0.0
53888.0,STARLINK-5034,PAYLOAD,2024-01-27 14:34:13,15.08811662,0.0001459,53.2166,190.3241,95.8682,264.2477,0.00033593,5.058e-05,0.0,0 STARLINK-5034,1 53888U 22119C   24027.60709655  .00005058  00000-0  33593-3 0  9994,2 53888  53.2166 190.3241 0001459  95.8682 264.2477 15.08811662 75129,6917.967,95.439,540.841,538.823,0.0
53888.0,STARLINK-5034,PAYLOAD,2024-01-27 17:44:59,15.08836186,0.0001321,53.2162,189.7279,102.8255,257.2885,1.7221e-05,-1.4e-07,0.0,0 STARLINK-5034,1 53888U 22119C   24027.73957314 -.00000014  00000-0  17221-4 0  9994,2 53888  53.2162 189.7279 0001321 102.8255 257.2885 15.08836186 75146,6917.892,95.438,540.671,538.843,0.0
53888.0,STARLINK-5034,PAYLOAD,2024-01-28 14:25:00,15.08834079,0.00015,53.2177,185.8666,110.2378,249.8776,7.279e-06,-1.72e-06,0.0,0 STARLINK-5034,1 53888U 22119C   24028.60069723 -.00000172  00000-0  72790-5 0  9997,2 53888  53.2177 185.8666 0001500 110.2378 249.8776 15.08834079 75276,6917.898,95.438,540.801,538.726,0.0
53888.0,STARLINK-5034,PAYLOAD,2024-01-28 19:11:09,15.08842531,0.0001332,53.217,184.9747,100.8871,259.2271,-6.9611e-05,-1.396e-05,0.0,0 STARLINK-5034,1 53888U 22119C   24028.79941545 -.00001396  00000-0 -69611-4 0  9995,2 53888  53.2170 184.9747 0001332 100.8871 259.2271 15.08842531 74888,6917.873,95.437,540.659,538.816,0.0
53888.0,STARLINK-5034,PAYLOAD,2024-01-30 09:20:25,15.08835563,0.0001128,53.2172,177.8392,90.5049,269.6072,2.8257e-05,1.62e-06,0.0,0 STARLINK-5034,1 53888U 22119C   24030.38918316  .00000162  00000-0  28257-4 0  9992,2 53888  53.2172 177.8392 0001128  90.5049 269.6072 15.08835563 75121,6917.894,95.438,540.539,538.979,0.0
53888.0,STARLINK-5034,PAYLOAD,2024-01-30 14:06:35,15.08827725,0.0001296,53.2169,176.9428,116.5986,243.5139,-4.9003e-05,-1.067e-05,0.0,0 STARLINK-5034,1 53888U 22119C   24030.58790929 -.00001067  00000-0 -49003-4 0  9991,2 53888  53.2169 176.9428 0001296 116.5986 243.5139 15.08827725 75577,6917.918,95.438,540.679,538.886,0.0
53888.0,STARLINK-5034,PAYLOAD,2024-01-30 17:17:21,15.08828758,0.0001021,53.2165,176.3496,104.2602,255.8504,-2.9143e-05,-7.51e-06,0.0,0 STARLINK-5034,1 53888U 22119C   24030.72039108 -.00000751  00000-0 -29143-4 0  9994,2 53888  53.2165 176.3496 0001021 104.2602 255.8504 15.08828758 75172,6917.915,95.438,540.486,539.073,0.0
53888.0,STARLINK-5034,PAYLOAD,2024-01-31 18:43:31,15.08826315,9.72e-05,53.2165,171.5932,90.9186,269.1918,0.00018981,2.733e-05,0.0,0 STARLINK-5034,1 53888U 22119C   24031.78022430  .00002733  00000-0  18981-3 0  9998,2 53888  53.2165 171.5932 0000972  90.9186 269.1918 15.08826315 75338,6917.922,95.438,540.46,539.115,0.0
53888.0,STARLINK-5034,PAYLOAD,2024-02-02 12:03:32,15.08846971,9.95e-05,53.2174,163.8595,110.4081,249.7018,0.00010417,1.371e-05,0.0,0 STARLINK-5034,1 53888U 22119C   24033.50245490  .00001371  00000-0  10417-3 0  9996,2 53888  53.2174 163.8595 0000995 110.4081 249.7018 15.08846971 75597,6917.859,95.437,540.412,539.036,0.0
53888.0,STARLINK-5034,PAYLOAD,2024-02-02 13:38:55,15.08848176,0.0001057,53.2172,163.5631,95.9562,264.1551,0.00011466,1.538e-05,0.0,0 STARLINK-5034,1 53888U 22119C   24033.56869440  .00001538  00000-0  11466-3 0  9999,2 53888  53.2172 163.5631 0001057  95.9562 264.1551 15.08848176 76025,6917.855,95.437,540.452,538.989,0.0
53888.0,STARLINK-5034,PAYLOAD,2024-02-02 18:25:04,15.08851875,0.0001145,53.217,162.6711,97.5606,262.5517,5.4277e-05,5.76e-06,0.0,0 STARLINK-5034,1 53888U 22119C   24033.76741387  .00000576  00000-0  54277-4 0  9999,2 53888  53.2170 162.6711 0001145  97.5606 262.5517 15.08851875 76054,6917.844,95.437,540.501,538.917,0.0
53888.0,STARLINK-5034,PAYLOAD,2024-02-03 11:54:20,15.0883826,0.0001584,53.2171,159.3945,122.963,237.1514,-7.8826e-05,-1.542e-05,0.0,0 STARLINK-5034,1 53888U 22119C   24034.49606666 -.00001542  00000-0 -78826-4 0  9992,2 53888  53.2171 159.3945 0001584 122.9630 237.1514 15.08838260 75747,6917.886,95.438,540.847,538.655,0.0
53888.0,STARLINK-5034,PAYLOAD,2024-02-03 13:29:43,15.08842083,0.0001265,53.2171,159.0958,105.2152,254.8981,-0.00010487,-1.957e-05,0.0,0 STARLINK-5034,1 53888U 22119C   24034.56230777 -.00001957  00000-0 -10487-3 0  9994,2 53888  53.2171 159.0958 0001265 105.2152 254.8981 15.08842083 76177,6917.874,95.437,540.614,538.864,0.0
53888.0,STARLINK-5034,PAYLOAD,2024-02-03 15:05:06,15.08837712,0.0001112,53.2166,158.8,83.8465,276.2654,-7.5695e-05,-1.492e-05,0.0,0 STARLINK-5034,1 53888U 22119C   24034.62854827 -.00001492  00000-0 -75695-4 0  9996,2 53888  53.2166 158.8000 0001112  83.8465 276.2654 15.08837712 76184,6917.887,95.438,540.522,538.983,0.0
53888.0,STARLINK-5034,PAYLOAD,2024-02-04 11:45:06,15.08845234,0.0001208,53.2173,154.9401,73.6954,286.4171,2.4511e-05,1.02e-06,0.0,0 STARLINK-5034,1 53888U 22119C   24035.48966107  .00000102  00000-0  24511-4 0  9992,2 53888  53.2173 154.9401 0001208  73.6954 286.4171 15.08845234 75892,6917.864,95.437,540.565,538.894,0.0
53888.0,STARLINK-5034,PAYLOAD,2024-02-04 13:20:29,15.08846168,0.0001231,53.2179,154.6447,76.3083,283.8046,3.9778e-05,3.45e-06,0.0,0 STARLINK-5034,1 53888U 22119C   24035.55590003  .00000345  00000-0  39778-4 0  9998,2 53888  53.2179 154.6447 0001231  76.3083 283.8046 15.08846168 76322,6917.862,95.437,540.578,538.875,0.0
53888.0,STARLINK-5034,PAYLOAD,2024-02-05 11:35:54,15.08836553,0.0001339,53.2186,150.4806,89.1438,270.9707,0.00010435,1.373e-05,0.0,0 STARLINK-5034,1 53888U 22119C   24036.48326470  .00001373  00000-0  10435-3 0  9996,2 53888  53.2186 150.4806 0001339  89.1438 270.9707 15.08836553 76045,6917.891,95.438,540.682,538.83,0.0
